{
  "norad_id": 65759,
  "name": "STARLINK-34692",
  "history": [
    {
      "epoch": "2026-03-28T17:14:06.945216",
      "apogee_km": 475.77219346551647,
      "perigee_km": 474.6468739646807,
      "latitude_deg": 9.15713300950249,
      "longitude_deg": 104.84105023974553,
      "semi_major_axis_km": 6853.346533715098,
      "eccentricity": 8.21e-05,
      "inclination_deg": 53.1577,
      "raan_deg": 244.7343,
      "arg_perigee_deg": 52.304,
      "mean_anomaly_deg": 307.8035,
      "mean_motion_rev_day": 15.30201854
    }
  ]
}